{
  "type": "FeatureCollection",
  "features": [
    {
      "type": "Feature",
      "properties": {
        "norad_id": 40889,
        "name": "GSAT0205 (GALILEO 9)",
        "group": "galileo",
        "lat": -27.07597228230509,
        "lon": -154.42733238745436,
        "alt_km": 23220.694916031072,
        "timestamp": "2025-12-20T20:38:44.705714+00:00",
        "meta_object_name": "GSAT0205 (GALILEO 9)",
        "meta_object_id": "2015-045A",
        "meta_epoch": "2025-12-17T23:34:28.865856",
        "meta_mean_motion": 1.70473246,
        "meta_eccentricity": 0.00059886,
        "meta_inclination": 55.0015,
        "meta_ra_of_asc_node": 226.6133,
        "meta_arg_of_pericenter": 39.6119,
        "meta_mean_anomaly": 320.5359,
        "meta_ephemeris_type": 0,
        "meta_classification_type": "U",
        "meta_norad_cat_id": 40889,
        "meta_element_set_no": 999,
        "meta_rev_at_epoch": 6392,
        "meta_bstar": 0,
        "meta_mean_motion_dot": 5.9e-07,
        "meta_mean_motion_ddot": 0,
        "tle_line1": "1 40889U 15045A   25351.98227854  .00000059  00000+0  00000+0 0  9997",
        "tle_line2": "2 40889  55.0015 226.6133 0005988  39.6119 320.5359  1.70473246 63920"
      },
      "geometry": {
        "type": "Point",
        "coordinates": [
          -154.42733238745436,
          -27.07597228230509
        ]
      }
    },
    {
      "type": "Feature",
      "properties": {
        "norad_id": 40890,
        "name": "GSAT0206 (GALILEO 10)",
        "group": "galileo",
        "lat": -8.944046043894643,
        "lon": 52.872110275086555,
        "alt_km": 23234.297338290573,
        "timestamp": "2025-12-20T20:38:44.705730+00:00",
        "meta_object_name": "GSAT0206 (GALILEO 10)",
        "meta_object_id": "2015-045B",
        "meta_epoch": "2025-12-18T18:56:55.411008",
        "meta_mean_motion": 1.70473154,
        "meta_eccentricity": 0.00042207,
        "meta_inclination": 55.0004,
        "meta_ra_of_asc_node": 226.586,
        "meta_arg_of_pericenter": 42.9195,
        "meta_mean_anomaly": 317.2206,
        "meta_ephemeris_type": 0,
        "meta_classification_type": "U",
        "meta_norad_cat_id": 40890,
        "meta_element_set_no": 999,
        "meta_rev_at_epoch": 6396,
        "meta_bstar": 0,
        "meta_mean_motion_dot": 6.4e-07,
        "meta_mean_motion_ddot": 0,
        "tle_line1": "1 40890U 15045B   25352.78953022  .00000064  00000+0  00000+0 0  9997",
        "tle_line2": "2 40890  55.0004 226.5860 0004220  42.9195 317.2206  1.70473154 63961"
      },
      "geometry": {
        "type": "Point",
        "coordinates": [
          52.872110275086555,
          -8.944046043894643
        ]
      }
    },
    {
      "type": "Feature",
      "properties": {
        "norad_id": 41174,
        "name": "GSAT0209 (GALILEO 12)",
        "group": "galileo",
        "lat": 55.674083192563934,
        "lon": -167.80830225484883,
        "alt_km": 23217.062212853776,
        "timestamp": "2025-12-20T20:38:44.705754+00:00",
        "meta_object_name": "GSAT0209 (GALILEO 12)",
        "meta_object_id": "2015-079A",
        "meta_epoch": "2025-12-17T18:49:30.009504",
        "meta_mean_motion": 1.70474581,
        "meta_eccentricity": 0.00024688,
        "meta_inclination": 55.7156,
        "meta_ra_of_asc_node": 106.2426,
        "meta_arg_of_pericenter": 347.1145,
        "meta_mean_anomaly": 12.8381,
        "meta_ephemeris_type": 0,
        "meta_classification_type": "U",
        "meta_norad_cat_id": 41174,
        "meta_element_set_no": 999,
        "meta_rev_at_epoch": 6168,
        "meta_bstar": 0,
        "meta_mean_motion_dot": -9e-08,
        "meta_mean_motion_ddot": 0,
        "tle_line1": "1 41174U 15079A   25351.78437511 -.00000009  00000+0  00000+0 0  9999",
        "tle_line2": "2 41174  55.7156 106.2426 0002468 347.1145  12.8381  1.70474581 61685"
      },
      "geometry": {
        "type": "Point",
        "coordinates": [
          -167.80830225484883,
          55.674083192563934
        ]
      }
    },
    {
      "type": "Feature",
      "properties": {
        "norad_id": 41175,
        "name": "GSAT0208 (GALILEO 11)",
        "group": "galileo",
        "lat": -37.475004448554145,
        "lon": 74.66697245317522,
        "alt_km": 23223.005927631377,
        "timestamp": "2025-12-20T20:38:44.705775+00:00",
        "meta_object_name": "GSAT0208 (GALILEO 11)",
        "meta_object_id": "2015-079B",
        "meta_epoch": "2025-12-20T08:25:16.296384",
        "meta_mean_motion": 1.70474393,
        "meta_eccentricity": 0.00018076,
        "meta_inclination": 55.7157,
        "meta_ra_of_asc_node": 106.1693,
        "meta_arg_of_pericenter": 359.1842,
        "meta_mean_anomaly": 0.7815,
        "meta_ephemeris_type": 0,
        "meta_classification_type": "U",
        "meta_norad_cat_id": 41175,
        "meta_element_set_no": 999,
        "meta_rev_at_epoch": 6214,
        "meta_bstar": 0,
        "meta_mean_motion_dot": -2e-08,
        "meta_mean_motion_ddot": 0,
        "tle_line1": "1 41175U 15079B   25354.35088306 -.00000002  00000+0  00000+0 0  9993",
        "tle_line2": "2 41175  55.7157 106.1693 0001807 359.1842   0.7815  1.70474393 62146"
      },
      "geometry": {
        "type": "Point",
        "coordinates": [
          74.66697245317522,
          -37.475004448554145
        ]
      }
    },
    {
      "type": "Feature",
      "properties": {
        "norad_id": 41549,
        "name": "GSAT0211 (GALILEO 14)",
        "group": "galileo",
        "lat": -43.13356078648839,
        "lon": 87.34232417425116,
        "alt_km": 23236.606462547654,
        "timestamp": "2025-12-20T20:38:44.705788+00:00",
        "meta_object_name": "GSAT0211 (GALILEO 14)",
        "meta_object_id": "2016-030A",
        "meta_epoch": "2025-12-14T00:32:28.498848",
        "meta_mean_motion": 1.70473201,
        "meta_eccentricity": 0.000407,
        "meta_inclination": 55.1518,
        "meta_ra_of_asc_node": 226.7881,
        "meta_arg_of_pericenter": 16.5595,
        "meta_mean_anomaly": 343.5367,
        "meta_ephemeris_type": 0,
        "meta_classification_type": "U",
        "meta_norad_cat_id": 41549,
        "meta_element_set_no": 999,
        "meta_rev_at_epoch": 5951,
        "meta_bstar": 0,
        "meta_mean_motion_dot": 2.8e-07,
        "meta_mean_motion_ddot": 0,
        "tle_line1": "1 41549U 16030A   25348.02255207  .00000028  00000+0  00000+0 0  9996",
        "tle_line2": "2 41549  55.1518 226.7881 0004070  16.5595 343.5367  1.70473201 59512"
      },
      "geometry": {
        "type": "Point",
        "coordinates": [
          87.34232417425116,
          -43.13356078648839
        ]
      }
    },
    {
      "type": "Feature",
      "properties": {
        "norad_id": 41550,
        "name": "GSAT0210 (GALILEO 13)",
        "group": "galileo",
        "lat": 53.5124953699446,
        "lon": -63.06364779761289,
        "alt_km": 23218.00792440251,
        "timestamp": "2025-12-20T20:38:44.705800+00:00",
        "meta_object_name": "GSAT0210 (GALILEO 13)",
        "meta_object_id": "2016-030B",
        "meta_epoch": "2025-12-18T23:20:38.714784",
        "meta_mean_motion": 1.70473668,
        "meta_eccentricity": 7.917e-05,
        "meta_inclination": 55.1496,
        "meta_ra_of_asc_node": 226.6499,
        "meta_arg_of_pericenter": 227.6007,
        "meta_mean_anomaly": 132.5002,
        "meta_ephemeris_type": 0,
        "meta_classification_type": "U",
        "meta_norad_cat_id": 41550,
        "meta_element_set_no": 999,
        "meta_rev_at_epoch": 5959,
        "meta_bstar": 0,
        "meta_mean_motion_dot": 6.5e-07,
        "meta_mean_motion_ddot": 0,
        "tle_line1": "1 41550U 16030B   25352.97267031  .00000065  00000+0  00000+0 0  9996",
        "tle_line2": "2 41550  55.1496 226.6499 0000791 227.6007 132.5002  1.70473668 59599"
      },
      "geometry": {
        "type": "Point",
        "coordinates": [
          -63.06364779761289,
          53.5124953699446
        ]
      }
    },
    {
      "type": "Feature",
      "properties": {
        "norad_id": 41859,
        "name": "GSAT0207 (GALILEO 15)",
        "group": "galileo",
        "lat": -55.34008348511723,
        "lon": 11.968016393945032,
        "alt_km": 23223.569951024823,
        "timestamp": "2025-12-20T20:38:44.705811+00:00",
        "meta_object_name": "GSAT0207 (GALILEO 15)",
        "meta_object_id": "2016-069A",
        "meta_epoch": "2025-12-20T10:10:36.025248",
        "meta_mean_motion": 1.7047449,
        "meta_eccentricity": 0.00023887,
        "meta_inclination": 55.3864,
        "meta_ra_of_asc_node": 106.0375,
        "meta_arg_of_pericenter": 318.3578,
        "meta_mean_anomaly": 41.5905,
        "meta_ephemeris_type": 0,
        "meta_classification_type": "U",
        "meta_norad_cat_id": 41859,
        "meta_element_set_no": 999,
        "meta_rev_at_epoch": 5635,
        "meta_bstar": 0,
        "meta_mean_motion_dot": -2e-08,
        "meta_mean_motion_ddot": 0,
        "tle_line1": "1 41859U 16069A   25354.42402807 -.00000002  00000+0  00000+0 0  9996",
        "tle_line2": "2 41859  55.3864 106.0375 0002388 318.3578  41.5905  1.70474490 56357"
      },
      "geometry": {
        "type": "Point",
        "coordinates": [
          11.968016393945032,
          -55.34008348511723
        ]
      }
    }
  ]
}